{"type":"FeatureCollection","features":[{"type":"Feature","properties":{"id":1,"del":"ansikt","farge":"gul","verdi":10},"geometry":{"type":"Point","coordinates":[8.08841,58.1647]}},{"type":"Feature","properties":{"id":2,"del":"ansikt","farge":"gul","verdi":10},"geometry":{"type":"Point","coordinates":[8.08712,58.17251]}},{"type":"Feature","properties":{"id":3,"del":"ansikt","farge":"gul","verdi":10},"geometry":{"type":"Point","coordinates":[8.08327,58.18009]}},{"type":"Feature","properties":{"id":4,"del":"ansikt","farge":"gul","verdi":10},"geometry":{"type":"Point","coordinates":[8.07698,58.1872]}},{"type":"Feature","properties":{"id":5,"del":"ansikt","farge":"gul","verdi":10},"geometry":{"type":"Point","coordinates":[8.06845,58.19363]}},{"type":"Feature","properties":{"id":6,"del":"ansikt","farge":"gul","verdi":10},"geometry":{"type":"Point","coordinates":[8.05794,58.19917]}},{"type":"Feature","properties":{"id":7,"del":"ansikt","farge":"gul","verdi":10},"geometry":{"type":"Point","coordinates":[8.04576,58.20367]}},{"type":"Feature","properties":{"id":8,"del":"ansikt","farge":"gul","verdi":10},"geometry":{"type":"Point","coordinates":[8.03228,58.20699]}},{"type":"Feature","properties":{"id":9,"del":"ansikt","farge":"gul","verdi":10},"geometry":{"type":"Point","coordinates":[8.01791,58.20902]}},{"type":"Feature","properties":{"id":10,"del":"ansikt","farge":"gul","verdi":10},"geometry":{"type":"Point","coordinates":[8.0031,58.2097]}},{"type":"Feature","properties":{"id":11,"del":"ansikt","farge":"gul","verdi":10},"geometry":{"type":"Point","coordinates":[7.98829,58.20902]}},{"type":"Feature","properties":{"id":12,"del":"ansikt","farge":"gul","verdi":10},"geometry":{"type":"Point","coordinates":[7.97392,58.20699]}},{"type":"Feature","properties":{"id":13,"del":"ansikt","farge":"gul","verdi":10},"geometry":{"type":"Point","coordinates":[7.96044,58.20367]}},{"type":"Feature","properties":{"id":14,"del":"ansikt","farge":"gul","verdi":10},"geometry":{"type":"Point","coordinates":[7.94826,58.19917]}},{"type":"Feature","properties":{"id":15,"del":"ansikt","farge":"gul","verdi":10},"geometry":{"type":"Point","coordinates":[7.93775,58.19363]}},{"type":"Feature","properties":{"id":16,"del":"ansikt","farge":"gul","verdi":10},"geometry":{"type":"Point","coordinates":[7.92922,58.1872]}},{"type":"Feature","properties":{"id":17,"del":"ansikt","farge":"gul","verdi":10},"geometry":{"type":"Point","coordinates":[7.92293,58.18009]}},{"type":"Feature","properties":{"id":18,"del":"ansikt","farge":"gul","verdi":10},"geometry":{"type":"Point","coordinates":[7.91908,58.17251]}},{"type":"Feature","properties":{"id":19,"del":"ansikt","farge":"gul","verdi":10},"geometry":{"type":"Point","coordinates":[7.91779,58.1647]}},{"type":"Feature","properties":{"id":20,"del":"ansikt","farge":"gul","verdi":10},"geometry":{"type":"Point","coordinates":[7.91908,58.15689]}},{"type":"Feature","properties":{"id":21,"del":"ansikt","farge":"gul","verdi":10},"geometry":{"type":"Point","coordinates":[7.92293,58.14931]}},{"type":"Feature","properties":{"id":22,"del":"ansikt","farge":"gul","verdi":10},"geometry":{"type":"Point","coordinates":[7.92922,58.1422]}},{"type":"Feature","properties":{"id":23,"del":"ansikt","farge":"gul","verdi":10},"geometry":{"type":"Point","coordinates":[7.93775,58.13577]}},{"type":"Feature","properties":{"id":24,"del":"ansikt","farge":"gul","verdi":10},"geometry":{"type":"Point","coordinates":[7.94826,58.13023]}},{"type":"Feature","properties":{"id":25,"del":"ansikt","farge":"gul","verdi":10},"geometry":{"type":"Point","coordinates":[7.96044,58.12573]}},{"type":"Feature","properties":{"id":26,"del":"ansikt","farge":"gul","verdi":10},"geometry":{"type":"Point","coordinates":[7.97392,58.12241]}},{"type":"Feature","properties":{"id":27,"del":"ansikt","farge":"gul","verdi":10},"geometry":{"type":"Point","coordinates":[7.98829,58.12038]}},{"type":"Feature","properties":{"id":28,"del":"ansikt","farge":"gul","verdi":10},"geometry":{"type":"Point","coordinates":[8.0031,58.1197]}},{"type":"Feature","properties":{"id":29,"del":"ansikt","farge":"gul","verdi":10},"geometry":{"type":"Point","coordinates":[8.01791,58.12038]}},{"type":"Feature","properties":{"id":30,"del":"ansikt","farge":"gul","verdi":10},"geometry":{"type":"Point","coordinates":[8.03228,58.12241]}},{"type":"Feature","properties":{"id":31,"del":"ansikt","farge":"gul","verdi":10},"geometry":{"type":"Point","coordinates":[8.04576,58.12573]}},{"type":"Feature","properties":{"id":32,"del":"ansikt","farge":"gul","verdi":10},"geometry":{"type":"Point","coordinates":[8.05794,58.13023]}},{"type":"Feature","properties":{"id":33,"del":"ansikt","farge":"gul","verdi":10},"geometry":{"type":"Point","coordinates":[8.06845,58.13577]}},{"type":"Feature","properties":{"id":34,"del":"ansikt","farge":"gul","verdi":10},"geometry":{"type":"Point","coordinates":[8.07698,58.1422]}},{"type":"Feature","properties":{"id":35,"del":"ansikt","farge":"gul","verdi":10},"geometry":{"type":"Point","coordinates":[8.08327,58.14931]}},{"type":"Feature","properties":{"id":36,"del":"ansikt","farge":"gul","verdi":10},"geometry":{"type":"Point","coordinates":[8.08712,58.15689]}},{"type":"Feature","properties":{"id":37,"del":"øye","farge":"svart","verdi":8},"geometry":{"type":"Point","coordinates":[7.97324,58.1782]}},{"type":"Feature","properties":{"id":38,"del":"øye","farge":"svart","verdi":5},"geometry":{"type":"Point","coordinates":[7.97938,58.1782]}},{"type":"Feature","properties":{"id":39,"del":"øye","farge":"svart","verdi":5},"geometry":{"type":"Point","coordinates":[7.9671,58.1782]}},{"type":"Feature","properties":{"id":40,"del":"øye","farge":"svart","verdi":5},"geometry":{"type":"Point","coordinates":[7.97324,58.18144]}},{"type":"Feature","properties":{"id":41,"del":"øye","farge":"svart","verdi":5},"geometry":{"type":"Point","coordinates":[7.97324,58.17496]}},{"type":"Feature","properties":{"id":42,"del":"øye","farge":"svart","verdi":8},"geometry":{"type":"Point","coordinates":[8.03296,58.1782]}},{"type":"Feature","properties":{"id":43,"del":"øye","farge":"svart","verdi":5},"geometry":{"type":"Point","coordinates":[8.0391,58.1782]}},{"type":"Feature","properties":{"id":44,"del":"øye","farge":"svart","verdi":5},"geometry":{"type":"Point","coordinates":[8.02682,58.1782]}},{"type":"Feature","properties":{"id":45,"del":"øye","farge":"svart","verdi":5},"geometry":{"type":"Point","coordinates":[8.03296,58.18144]}},{"type":"Feature","properties":{"id":46,"del":"øye","farge":"svart","verdi":5},"geometry":{"type":"Point","coordinates":[8.03296,58.17496]}},{"type":"Feature","properties":{"id":47,"del":"munn","farge":"rød","verdi":15},"geometry":{"type":"Point","coordinates":[7.955,58.15772]}},{"type":"Feature","properties":{"id":48,"del":"munn","farge":"rød","verdi":15},"geometry":{"type":"Point","coordinates":[7.95953,58.15278]}},{"type":"Feature","properties":{"id":49,"del":"munn","farge":"rød","verdi":15},"geometry":{"type":"Point","coordinates":[7.96587,58.14842]}},{"type":"Feature","properties":{"id":50,"del":"munn","farge":"rød","verdi":15},"geometry":{"type":"Point","coordinates":[7.97374,58.14483]}},{"type":"Feature","properties":{"id":51,"del":"munn","farge":"rød","verdi":15},"geometry":{"type":"Point","coordinates":[7.98283,58.14216]}},{"type":"Feature","properties":{"id":52,"del":"munn","farge":"rød","verdi":15},"geometry":{"type":"Point","coordinates":[7.99275,58.14051]}},{"type":"Feature","properties":{"id":53,"del":"munn","farge":"rød","verdi":15},"geometry":{"type":"Point","coordinates":[8.0031,58.13995]}},{"type":"Feature","properties":{"id":54,"del":"munn","farge":"rød","verdi":15},"geometry":{"type":"Point","coordinates":[8.01345,58.14051]}},{"type":"Feature","properties":{"id":55,"del":"munn","farge":"rød","verdi":15},"geometry":{"type":"Point","coordinates":[8.02337,58.14216]}},{"type":"Feature","properties":{"id":56,"del":"munn","farge":"rød","verdi":15},"geometry":{"type":"Point","coordinates":[8.03246,58.14483]}},{"type":"Feature","properties":{"id":57,"del":"munn","farge":"rød","verdi":15},"geometry":{"type":"Point","coordinates":[8.04033,58.14842]}},{"type":"Feature","properties":{"id":58,"del":"munn","farge":"rød","verdi":15},"geometry":{"type":"Point","coordinates":[8.04667,58.15278]}},{"type":"Feature","properties":{"id":59,"del":"munn","farge":"rød","verdi":15},"geometry":{"type":"Point","coordinates":[8.0512,58.15772]}}]}